NORAD_CAT_ID,OBJECT_NAME,OBJECT_TYPE,EPOCH,MEAN_MOTION,ECCENTRICITY,INCLINATION,RA_OF_ASC_NODE,ARG_OF_PERICENTER,MEAN_ANOMALY,BSTAR,MEAN_MOTION_DOT,MEAN_MOTION_DDOT,TLE_LINE0,TLE_LINE1,TLE_LINE2,SEMIMAJOR_AXIS,PERIOD,APOGEE,PERIGEE,DECAYED
51966.0,STARLINK-3699,PAYLOAD,2022-10-27 00:34:23,15.08822611,0.0001792,53.2186,149.3083,57.5426,302.5739,0.00027221,4.045e-05,0.0,0 STARLINK-3699,1 51966U 22025L   22300.02388131  .00004045  00000-0  27221-3 0  9991,2 51966  53.2186 149.3083 0001792  57.5426 302.5739 15.08822611 35562,6917.934,95.439,541.038,538.559,0.0
51966.0,STARLINK-3699,PAYLOAD,2022-10-27 19:39:00,15.08847877,0.0001757,53.2187,145.7399,58.4409,301.6754,0.00016681,2.368e-05,0.0,0 STARLINK-3699,1 51966U 22025L   22300.81875135  .00002368  00000-0  16681-3 0  9997,2 51966  53.2187 145.7399 0001757  58.4409 301.6754 15.08847877 35686,6917.856,95.437,540.937,538.506,0.0
51966.0,STARLINK-3699,PAYLOAD,2022-10-27 21:14:23,15.08848601,0.000176,53.2187,145.4425,58.2984,301.8179,0.00017035,2.425e-05,0.0,0 STARLINK-3699,1 51966U 22025L   22300.88499063  .00002425  00000-0  17035-3 0  9994,2 51966  53.2187 145.4425 0001760  58.2984 301.8179 15.08848601 36784,6917.854,95.437,540.937,538.502,0.0
51966.0,STARLINK-3699,PAYLOAD,2022-10-28 06:46:42,15.08845989,0.0001811999999999,53.2187,143.6584,57.6868,302.43,0.00012446,1.694e-05,0.0,0 STARLINK-3699,1 51966U 22025L   22301.28243256  .00001694  00000-0  12446-3 0  9998,2 51966  53.2187 143.6584 0001812  57.6868 302.4300 15.08845989 35757,6917.861999999999,95.437,540.981,538.474,0.0
51966.0,STARLINK-3699,PAYLOAD,2022-10-28 19:29:46,15.08849837,0.0001817,53.2189,141.2799,58.4821,301.6349,7.7009e-05,9.38e-06,0.0,0 STARLINK-3699,1 51966U 22025L   22301.81234934  .00000938  00000-0  77009-4 0  9997,2 51966  53.2189 141.2799 0001817  58.4821 301.6349 15.08849837 35833,6917.85,95.437,540.972,538.4580000000002,0.0
51966.0,STARLINK-3699,PAYLOAD,2022-10-29 06:37:29,15.08843678,0.0001721999999999,53.219,139.1987,61.0882,299.0282,-1.6837e-05,-5.56e-06,0.0,0 STARLINK-3699,1 51966U 22025L   22302.27603360 -.00000556  00000-0 -16837-4 0  9991,2 51966  53.2190 139.1987 0001722  61.0882 299.0282 15.08843678 35903,6917.869000000002,95.437,540.925,538.543,0.0
51966.0,STARLINK-3699,PAYLOAD,2022-10-29 19:20:33,15.08855143,0.000168,53.2189,136.8191,59.7151,300.4008,8.567599999999999e-06,-1.52e-06,0.0,0 STARLINK-3699,1 51966U 22025L   22302.80594223 -.00000152  00000-0  85676-5 0  9996,2 51966  53.2189 136.8191 0001680  59.7151 300.4008 15.08855143 37071,6917.834,95.437,540.861,538.5369999999998,0.0
51966.0,STARLINK-3699,PAYLOAD,2022-10-30 20:46:43,15.08846327,0.000175,53.2195,132.0626,58.8513,301.2651,6.6761e-06,-1.82e-06,0.0,0 STARLINK-3699,1 51966U 22025L   22303.86578320 -.00000182  00000-0  66761-5 0  9990,2 51966  53.2195 132.0626 0001750  58.8513 301.2651 15.08846327 37234,6917.861,95.437,540.937,538.515,0.0
51966.0,STARLINK-3699,PAYLOAD,2022-10-31 23:48:17,15.08841348,0.0001564999999999,53.2186,127.0064,57.0208,303.0934,6.2249e-06,-1.89e-06,0.0,0 STARLINK-3699,1 51966U 22025L   22304.99186787 -.00000189  00000-0  62249-5 0  9991,2 51966  53.2186 127.0064 0001565  57.0208 303.0934 15.08841348 37401,6917.876,95.437,540.8240000000002,538.659,0.0
51966.0,STARLINK-3699,PAYLOAD,2022-11-01 10:56:00,15.08823975,0.0001663,53.2182,124.9252,49.6039,310.5098,0.00011862,1.6e-05,0.0,0 STARLINK-3699,1 51966U 22025L   22305.45555568  .00001600  00000-0  11862-3 0  9991,2 51966  53.2182 124.9252 0001663  49.6039 310.5098 15.08823975 37477,6917.929,95.439,540.945,538.644,0.0
51966.0,STARLINK-3699,PAYLOAD,2022-11-01 12:31:23,15.08823764,0.0001608,53.2184,124.6275,52.9175,307.1964,0.00011983,1.619e-05,0.0,0 STARLINK-3699,1 51966U 22025L   22305.52179677  .00001619  00000-0  11983-3 0  9996,2 51966  53.2184 124.6275 0001608  52.9175 307.1964 15.08823764 36398,6917.93,95.439,540.9069999999998,538.683,0.0
51966.0,STARLINK-3699,PAYLOAD,2022-11-01 18:52:55,15.08831461,0.0001666999999999,53.2176,123.4383,52.5987,307.5156,0.0001818,2.606e-05,0.0,0 STARLINK-3699,1 51966U 22025L   22305.78675692  .00002606  00000-0  18180-3 0  9995,2 51966  53.2176 123.4383 0001667  52.5987 307.5156 15.08831461 36433,6917.906,95.438,540.925,538.618,0.0
51966.0,STARLINK-3699,PAYLOAD,2022-11-02 02:49:51,15.08841567,0.0001705,53.2178,121.9514,53.8054,306.3096,0.00025148,3.717e-05,0.0,0 STARLINK-3699,1 51966U 22025L   22306.11795483  .00003717  00000-0  25148-3 0  9990,2 51966  53.2178 121.9514 0001705  53.8054 306.3096 15.08841567 37570,6917.876,95.437,540.92,538.561,0.0
51966.0,STARLINK-3699,PAYLOAD,2022-11-02 12:22:09,15.08848464,0.0001665,53.2179,120.1675,54.2637,305.851,0.00042738,6.522e-05,0.0,0 STARLINK-3699,1 51966U 22025L   22306.51539307  .00006522  00000-0  42738-3 0  9996,2 51966  53.2179 120.1675 0001665  54.2637 305.8510 15.08848464 36541,6917.855,95.437,540.871,538.568,0.0
51966.0,STARLINK-3699,PAYLOAD,2022-11-02 18:43:42,15.08853826,0.0001756,53.2179,118.978,54.0354,306.0801,0.00072474,0.00011269,0.0,0 STARLINK-3699,1 51966U 22025L   22306.78035195  .00011269  00000-0  72474-3 0  9995,2 51966  53.2179 118.9780 0001756  54.0354 306.0801 15.08853826 36586,6917.8380000000025,95.437,540.918,538.488,0.0
51966.0,STARLINK-3699,PAYLOAD,2022-11-03 02:40:38,15.08836322,0.0001612,53.2179,117.4912,53.0393,307.0747,-1.8357e-05,-5.8e-06,0.0,0 STARLINK-3699,1 51966U 22025L   22307.11155523 -.00000580  00000-0 -18357-4 0  9998,2 51966  53.2179 117.4912 0001612  53.0393 307.0747 15.08836322 37729,6917.892,95.438,540.872,538.641,0.0
51966.0,STARLINK-3699,PAYLOAD,2022-11-03 12:12:57,15.08840329,0.0001655,53.2177,115.707,52.545,307.5693,0.00020298,2.944e-05,0.0,0 STARLINK-3699,1 51966U 22025L   22307.50899672  .00002944  00000-0  20298-3 0  9991,2 51966  53.2177 115.7070 0001655  52.5450 307.5693 15.08840329 36690,6917.879,95.438,540.889,538.599,0.0
51966.0,STARLINK-3699,PAYLOAD,2022-11-03 20:09:52,15.08846731,0.0001663,53.2176,114.2203,51.6813,308.4328,0.00063752,9.875e-05,0.0,0 STARLINK-3699,1 51966U 22025L   22307.84019615  .00009875  00000-0  63752-3 0  9991,2 51966  53.2176 114.2203 0001663  51.6813 308.4328 15.08846731 36747,6917.86,95.437,540.875,538.5740000000002,0.0
51966.0,STARLINK-3699,PAYLOAD,2022-11-04 04:06:48,15.08853318,0.0001653,53.2174,112.7334,51.9079,308.2063,0.00082453,0.00012863,0.0,0 STARLINK-3699,1 51966U 22025L   22308.17139445  .00012863  00000-0  82453-3 0  9992,2 51966  53.2174 112.7334 0001653  51.9079 308.2063 15.08853318 37888,6917.84,95.437,540.8480000000002,538.561,0.0
51966.0,STARLINK-3699,PAYLOAD,2022-11-04 12:03:44,15.08842716,0.0001694,53.2172,111.2466,54.5345,305.5805,0.00018514,2.660000000000001e-05,0.0,0 STARLINK-3699,1 51966U 22025L   22308.50259554  .00002660  00000-0  18514-3 0  9994,2 51966  53.2172 111.2466 0001694  54.5345 305.5805 15.08842716 37936,6917.871999999999,95.437,540.909,538.565,0.0
51966.0,STARLINK-3699,PAYLOAD,2022-11-04 20:00:39,15.08849669,0.0001769,53.2172,109.7597,52.5111,307.6042,0.00043556,6.653e-05,0.0,0 STARLINK-3699,1 51966U 22025L   22308.83379439  .00006653  00000-0  43556-3 0  9995,2 51966  53.2172 109.7597 0001769  52.5111 307.6042 15.08849669 36899,6917.851,95.437,540.94,538.492,0.0
51966.0,STARLINK-3699,PAYLOAD,2022-11-05 11:54:31,15.08840578,0.0001710999999999,53.217,106.786,52.8207,307.2941,0.00014536,2.026e-05,0.0,0 STARLINK-3699,1 51966U 22025L   22309.49619452  .00002026  00000-0  14536-3 0  9996,2 51966  53.2170 106.7860 0001711  52.8207 307.2941 15.08840578 36998,6917.879,95.438,540.927,538.56,0.0
51966.0,STARLINK-3699,PAYLOAD,2022-11-05 18:16:04,15.08834581,0.0001774,53.2174,105.5966,51.6733,308.4418,-7.674300000000001e-05,-1.509e-05,0.0,0 STARLINK-3699,1 51966U 22025L   22309.76115760 -.00001509  00000-0 -76743-4 0  9995,2 51966  53.2174 105.5966 0001774  51.6733 308.4418 15.08834581 38122,6917.897,95.438,540.989,538.535,0.0
51966.0,STARLINK-3699,PAYLOAD,2022-11-06 11:45:19,15.08835695,0.0001846,53.2181,102.3257,54.2191,305.8972,-1.8116e-05,-5.76e-06,0.0,0 STARLINK-3699,1 51966U 22025L   22310.48980370 -.00000576  00000-0 -18116-4 0  9996,2 51966  53.2181 102.3257 0001846  54.2191 305.8972 15.08835695 37149,6917.894,95.438,541.036,538.482,0.0
51966.0,STARLINK-3699,PAYLOAD,2022-11-06 21:17:37,15.08840911,0.0001903,53.2177,100.5416,54.6127,305.5042,0.00025983,3.85e-05,0.0,0 STARLINK-3699,1 51966U 22025L   22310.88724441  .00003850  00000-0  25983-3 0  9990,2 51966  53.2177 100.5416 0001903  54.6127 305.5042 15.08840911 38297,6917.878000000002,95.437,541.059,538.4259999999998,0.0
51966.0,STARLINK-3699,PAYLOAD,2022-11-07 19:33:01,15.08845412,0.000189,53.2181,96.3783,53.3676,306.749,0.00032656,4.914e-05,0.0,0 STARLINK-3699,1 51966U 22025L   22311.81460356  .00004914  00000-0  32656-3 0  9993,2 51966  53.2181  96.3783 0001890  53.3676 306.7490 15.08845412 37347,6917.864000000001,95.437,541.036,538.4209999999998,0.0
51966.0,STARLINK-3699,PAYLOAD,2022-11-08 05:05:19,15.08862112,0.0001908,53.2183,94.5943,53.1162,307.0005,0.00054442,8.392e-05,0.0,0 STARLINK-3699,1 51966U 22025L   22312.21203434  .00008392  00000-0  54442-3 0  9991,2 51966  53.2183  94.5943 0001908  53.1162 307.0005 15.08862112 38494,6917.813,95.436,540.998,538.3580000000002,0.0
51966.0,STARLINK-3699,PAYLOAD,2022-11-08 16:13:01,15.08871611,0.0001961,53.2183,92.5128,52.2393,307.8777,0.00060995,9.441e-05,0.0,0 STARLINK-3699,1 51966U 22025L   22312.67570769  .00009441  00000-0  60995-3 0  9995,2 51966  53.2183  92.5128 0001961  52.2393 307.8777 15.08871611 37477,6917.784000000002,95.436,541.005,538.2919999999998,0.0
51966.0,STARLINK-3699,PAYLOAD,2022-11-09 14:28:24,15.08828055,0.000154,53.2189,88.3501,46.7391,313.373,-0.00079582,-0.00012927,0.0,0 STARLINK-3699,1 51966U 22025L   22313.60306602 -.00012927  00000-0 -79582-3 0  9999,2 51966  53.2189  88.3501 0001540  46.7391 313.3730 15.08828055 37611,6917.917,95.438,540.847,538.717,0.0
